{
  "type": "FeatureCollection",
  "features": [
    {
      "type": "Feature",
      "properties": {
        "norad_id": 66463,
        "name": "STARLINK-35463",
        "group": "last-30-days",
        "lat": -12.492220626429738,
        "lon": -62.96020684821036,
        "alt_km": 416.4778844518323,
        "timestamp": "2025-12-07T05:38:08.683943+00:00",
        "meta_object_name": "STARLINK-35463",
        "meta_object_id": "2025-262H",
        "meta_epoch": "2025-12-06T14:00:01.999872",
        "meta_mean_motion": 15.50640722,
        "meta_eccentricity": 0.0001354,
        "meta_inclination": 43.0005,
        "meta_ra_of_asc_node": 107.0971,
        "meta_arg_of_pericenter": 268.8277,
        "meta_mean_anomaly": 248.8163,
        "meta_ephemeris_type": 0,
        "meta_classification_type": "U",
        "meta_norad_cat_id": 66463,
        "meta_element_set_no": 999,
        "meta_rev_at_epoch": 464,
        "meta_bstar": -0.0028553848,
        "meta_mean_motion_dot": -0.00164738,
        "meta_mean_motion_ddot": 0,
        "tle_line1": "1 66463U 25262H   25340.58335648 -.00164738  00000+0 -28554-2 0  9994",
        "tle_line2": "2 66463  43.0005 107.0971 0001354 268.8277 248.8163 15.50640722  4645"
      },
      "geometry": {
        "type": "Point",
        "coordinates": [
          -62.96020684821036,
          -12.492220626429738
        ]
      }
    },
    {
      "type": "Feature",
      "properties": {
        "norad_id": 66464,
        "name": "STARLINK-35435",
        "group": "last-30-days",
        "lat": -11.224333226200056,
        "lon": -64.4136809944253,
        "alt_km": 416.4020633363025,
        "timestamp": "2025-12-07T05:38:08.683955+00:00",
        "meta_object_name": "STARLINK-35435",
        "meta_object_id": "2025-262J",
        "meta_epoch": "2025-12-06T14:00:01.999872",
        "meta_mean_motion": 15.50639766,
        "meta_eccentricity": 0.00011405,
        "meta_inclination": 43.0004,
        "meta_ra_of_asc_node": 107.1018,
        "meta_arg_of_pericenter": 269.5109,
        "meta_mean_anomaly": 246.2157,
        "meta_ephemeris_type": 0,
        "meta_classification_type": "U",
        "meta_norad_cat_id": 66464,
        "meta_element_set_no": 999,
        "meta_rev_at_epoch": 464,
        "meta_bstar": -0.0027684307,
        "meta_mean_motion_dot": -0.00159822,
        "meta_mean_motion_ddot": 0,
        "tle_line1": "1 66464U 25262J   25340.58335648 -.00159822  00000+0 -27684-2 0  9996",
        "tle_line2": "2 66464  43.0004 107.1018 0001140 269.5109 246.2157 15.50639766  4644"
      },
      "geometry": {
        "type": "Point",
        "coordinates": [
          -64.4136809944253,
          -11.224333226200056
        ]
      }
    },
    {
      "type": "Feature",
      "properties": {
        "norad_id": 66465,
        "name": "STARLINK-35448",
        "group": "last-30-days",
        "lat": -15.023336239786996,
        "lon": -59.984580940967845,
        "alt_km": 416.5966390794556,
        "timestamp": "2025-12-07T05:38:08.683965+00:00",
        "meta_object_name": "STARLINK-35448",
        "meta_object_id": "2025-262K",
        "meta_epoch": "2025-12-06T14:00:01.999872",
        "meta_mean_motion": 15.50611949,
        "meta_eccentricity": 0.00014596,
        "meta_inclination": 43.0005,
        "meta_ra_of_asc_node": 107.0878,
        "meta_arg_of_pericenter": 271.8593,
        "meta_mean_anomaly": 249.6264,
        "meta_ephemeris_type": 0,
        "meta_classification_type": "U",
        "meta_norad_cat_id": 66465,
        "meta_element_set_no": 999,
        "meta_rev_at_epoch": 464,
        "meta_bstar": -0.0019970976,
        "meta_mean_motion_dot": -0.0011592,
        "meta_mean_motion_ddot": 0,
        "tle_line1": "1 66465U 25262K   25340.58335648 -.00115920  00000+0 -19971-2 0  9998",
        "tle_line2": "2 66465  43.0005 107.0878 0001459 271.8593 249.6264 15.50611949  4644"
      },
      "geometry": {
        "type": "Point",
        "coordinates": [
          -59.984580940967845,
          -15.023336239786996
        ]
      }
    },
    {
      "type": "Feature",
      "properties": {
        "norad_id": 66466,
        "name": "STARLINK-35388",
        "group": "last-30-days",
        "lat": -16.271780409270516,
        "lon": -58.47524631882422,
        "alt_km": 416.7197752927141,
        "timestamp": "2025-12-07T05:38:08.683977+00:00",
        "meta_object_name": "STARLINK-35388",
        "meta_object_id": "2025-262L",
        "meta_epoch": "2025-12-06T14:00:01.999872",
        "meta_mean_motion": 15.50614295,
        "meta_eccentricity": 0.00012386,
        "meta_inclination": 43.0005,
        "meta_ra_of_asc_node": 107.0821,
        "meta_arg_of_pericenter": 271.0722,
        "meta_mean_anomaly": 252.3293,
        "meta_ephemeris_type": 0,
        "meta_classification_type": "U",
        "meta_norad_cat_id": 66466,
        "meta_element_set_no": 999,
        "meta_rev_at_epoch": 464,
        "meta_bstar": -0.0020286671,
        "meta_mean_motion_dot": -0.00117727,
        "meta_mean_motion_ddot": 0,
        "tle_line1": "1 66466U 25262L   25340.58335648 -.00117727  00000+0 -20287-2 0  9998",
        "tle_line2": "2 66466  43.0005 107.0821 0001238 271.0722 252.3293 15.50614295  4644"
      },
      "geometry": {
        "type": "Point",
        "coordinates": [
          -58.47524631882422,
          -16.271780409270516
        ]
      }
    },
    {
      "type": "Feature",
      "properties": {
        "norad_id": 66467,
        "name": "STARLINK-35682",
        "group": "last-30-days",
        "lat": -13.766612290560314,
        "lon": -61.47541854277291,
        "alt_km": 416.4835859538325,
        "timestamp": "2025-12-07T05:38:08.683988+00:00",
        "meta_object_name": "STARLINK-35682",
        "meta_object_id": "2025-262M",
        "meta_epoch": "2025-12-06T14:00:01.999872",
        "meta_mean_motion": 15.50619528,
        "meta_eccentricity": 0.00014153,
        "meta_inclination": 43.0005,
        "meta_ra_of_asc_node": 107.0924,
        "meta_arg_of_pericenter": 269.3756,
        "meta_mean_anomaly": 250.1877,
        "meta_ephemeris_type": 0,
        "meta_classification_type": "U",
        "meta_norad_cat_id": 66467,
        "meta_element_set_no": 999,
        "meta_rev_at_epoch": 464,
        "meta_bstar": -0.0021579512,
        "meta_mean_motion_dot": -0.00125116,
        "meta_mean_motion_ddot": 0,
        "tle_line1": "1 66467U 25262M   25340.58335648 -.00125116  00000+0 -21580-2 0  9997",
        "tle_line2": "2 66467  43.0005 107.0924 0001415 269.3756 250.1877 15.50619528  4641"
      },
      "geometry": {
        "type": "Point",
        "coordinates": [
          -61.47541854277291,
          -13.766612290560314
        ]
      }
    },
    {
      "type": "Feature",
      "properties": {
        "norad_id": 66468,
        "name": "STARLINK-35331",
        "group": "last-30-days",
        "lat": -17.501625154517185,
        "lon": -56.955125067301815,
        "alt_km": 416.8091100418724,
        "timestamp": "2025-12-07T05:38:08.684000+00:00",
        "meta_object_name": "STARLINK-35331",
        "meta_object_id": "2025-262N",
        "meta_epoch": "2025-12-06T14:00:01.999872",
        "meta_mean_motion": 15.50624291,
        "meta_eccentricity": 0.00013947,
        "meta_inclination": 43.0005,
        "meta_ra_of_asc_node": 107.0775,
        "meta_arg_of_pericenter": 271.2114,
        "meta_mean_anomaly": 254.1044,
        "meta_ephemeris_type": 0,
        "meta_classification_type": "U",
        "meta_norad_cat_id": 66468,
        "meta_element_set_no": 999,
        "meta_rev_at_epoch": 464,
        "meta_bstar": -0.0023294318,
        "meta_mean_motion_dot": -0.00134887,
        "meta_mean_motion_ddot": 0,
        "tle_line1": "1 66468U 25262N   25340.58335648 -.00134887  00000+0 -23294-2 0  9997",
        "tle_line2": "2 66468  43.0005 107.0775 0001394 271.2114 254.1044 15.50624291  4645"
      },
      "geometry": {
        "type": "Point",
        "coordinates": [
          -56.955125067301815,
          -17.501625154517185
        ]
      }
    },
    {
      "type": "Feature",
      "properties": {
        "norad_id": 66469,
        "name": "STARLINK-35451",
        "group": "last-30-days",
        "lat": -21.14482068869896,
        "lon": -52.226846634269364,
        "alt_km": 417.068169885305,
        "timestamp": "2025-12-07T05:38:08.684010+00:00",
        "meta_object_name": "STARLINK-35451",
        "meta_object_id": "2025-262P",
        "meta_epoch": "2025-12-06T14:00:01.999872",
        "meta_mean_motion": 15.50692381,
        "meta_eccentricity": 0.00010984,
        "meta_inclination": 43.0006,
        "meta_ra_of_asc_node": 107.0624,
        "meta_arg_of_pericenter": 266.3329,
        "meta_mean_anomaly": 264.6744,
        "meta_ephemeris_type": 0,
        "meta_classification_type": "U",
        "meta_norad_cat_id": 66469,
        "meta_element_set_no": 999,
        "meta_rev_at_epoch": 464,
        "meta_bstar": -0.0032293439,
        "meta_mean_motion_dot": -0.00186103,
        "meta_mean_motion_ddot": 0,
        "tle_line1": "1 66469U 25262P   25340.58335648 -.00186103  00000+0 -32293-2 0  9995",
        "tle_line2": "2 66469  43.0006 107.0624 0001098 266.3329 264.6744 15.50692381  4642"
      },
      "geometry": {
        "type": "Point",
        "coordinates": [
          -52.226846634269364,
          -21.14482068869896
        ]
      }
    }
  ]
}